{"type": "FeatureCollection", "features": [ {"type": "Feature", "properties": {"norad_id": 35195, "name": "FENGYUN 1C DEB", "group": "fengyun-1c-debris", "lat": -37.91148964029421, "lon": -112.92554774684689, "alt_km": 760.186461701247, "timestamp": "2025-12-06T07:31:40.524550+00:00", "meta": {"OBJECT_NAME": "FENGYUN 1C DEB", "OBJECT_ID": "1999-025DPB", "EPOCH": "2025-12-03T12:33:41.840352", "MEAN_MOTION": 14.55899933, "ECCENTRICITY": 0.01040396, "INCLINATION": 98.9842, "RA_OF_ASC_NODE": 71.1499, "ARG_OF_PERICENTER": 96.2611, "MEAN_ANOMALY": 265.0447, "EPHEMERIS_TYPE": 0, "CLASSIFICATION_TYPE": "U", "NORAD_CAT_ID": 35195, "ELEMENT_SET_NO": 999, "REV_AT_EPOCH": 90792, "BSTAR": 0.0012811423, "MEAN_MOTION_DOT": 6e-05, "MEAN_MOTION_DDOT": 0}, "tle": {"line1": "1 35195U 99025DPB 25337.52340093  .00006000  00000+0  12811-2 0  9994", "line2": "2 35195  98.9842  71.1499 0104039  96.2611 265.0447 14.55899933907929"}}, "geometry": {"type": "Point", "coordinates": [-112.92554774684689, -37.91148964029421]}}, {"type": "Feature", "properties": {"norad_id": 35196, "name": "FENGYUN 1C DEB", "group": "fengyun-1c-debris", "lat": 75.32634446132575, "lon": -149.29164393024647, "alt_km": 855.9274449622944, "timestamp": "2025-12-06T07:31:40.524560+00:00", "meta": {"OBJECT_NAME": "FENGYUN 1C DEB", "OBJECT_ID": "1999-025DPC", "EPOCH": "2025-12-05T07:27:44.167104", "MEAN_MOTION": 14.19732961, "ECCENTRICITY": 0.02149324, "INCLINATION": 98.5363, "RA_OF_ASC_NODE": 354.7403, "ARG_OF_PERICENTER": 359.8892, "MEAN_ANOMALY": 17.5443, "EPHEMERIS_TYPE": 0, "CLASSIFICATION_TYPE": "U", "NORAD_CAT_ID": 35196, "ELEMENT_SET_NO": 999, "REV_AT_EPOCH": 89029, "BSTAR": 0.0016144505, "MEAN_MOTION_DOT": 4.262e-05, "MEAN_MOTION_DDOT": 0}, "tle": {"line1": "1 35196U 99025DPC 25339.31092786  .00004262  00000+0  16145-2 0  9999", "line2": "2 35196  98.5363 354.7403 0214932 359.8892  17.5443 14.19732961890296"}}, "geometry": {"type": "Point", "coordinates": [-149.29164393024647, 75.32634446132575]}}, {"type": "Feature", "properties": {"norad_id": 35200, "name": "FENGYUN 1C DEB", "group": "fengyun-1c-debris", "lat": -8.313124745166636, "lon": 137.18500541206103, "alt_km": 1196.2536263321326, "timestamp": "2025-12-06T07:31:40.524570+00:00", "meta": {"OBJECT_NAME": "FENGYUN 1C DEB", "OBJECT_ID": "1999-025DPG", "EPOCH": "2025-12-04T04:50:38.257152", "MEAN_MOTION": 13.41951597, "ECCENTRICITY": 0.0353271, "INCLINATION": 98.8685, "RA_OF_ASC_NODE": 316.6331, "ARG_OF_PERICENTER": 81.7228, "MEAN_ANOMALY": 345.783, "EPHEMERIS_TYPE": 0, "CLASSIFICATION_TYPE": "U", "NORAD_CAT_ID": 35200, "ELEMENT_SET_NO": 999, "REV_AT_EPOCH": 65789, "BSTAR": 0.0006522, "MEAN_MOTION_DOT": 4.95e-06, "MEAN_MOTION_DDOT": 0}, "tle": {"line1": "1 35200U 99025DPG 25338.20183168  .00000495  00000+0  65220-3 0  9990", "line2": "2 35200  98.8685 316.6331 0353271  81.7228 345.7830 13.41951597657898"}}, "geometry": {"type": "Point", "coordinates": [137.18500541206103, -8.313124745166636]}}, {"type": "Feature", "properties": {"norad_id": 35201, "name": "FENGYUN 1C DEB", "group": "fengyun-1c-debris", "lat": -40.34565020066974, "lon": -2.9735510449961624, "alt_km": 859.4520586416893, "timestamp": "2025-12-06T07:31:40.524581+00:00", "meta": {"OBJECT_NAME": "FENGYUN 1C DEB", "OBJECT_ID": "1999-025DPH", "EPOCH": "2025-12-05T06:29:24.104832", "MEAN_MOTION": 14.1104795, "ECCENTRICITY": 0.00057762, "INCLINATION": 98.7081, "RA_OF_ASC_NODE": 348.5347, "ARG_OF_PERICENTER": 274.3032, "MEAN_ANOMALY": 148.3352, "EPHEMERIS_TYPE": 0, "CLASSIFICATION_TYPE": "U", "NORAD_CAT_ID": 35201, "ELEMENT_SET_NO": 999, "REV_AT_EPOCH": 86914, "BSTAR": 0.00018923655, "MEAN_MOTION_DOT": 2.98e-06, "MEAN_MOTION_DDOT": 0}, "tle": {"line1": "1 35201U 99025DPH 25339.27041788  .00000298  00000+0  18924-3 0  9990", "line2": "2 35201  98.7081 348.5347 0005776 274.3032 148.3352 14.11047950869142"}}, "geometry": {"type": "Point", "coordinates": [-2.9735510449961624, -40.34565020066974]}}, {"type": "Feature", "properties": {"norad_id": 35202, "name": "FENGYUN 1C DEB", "group": "fengyun-1c-debris", "lat": -42.28463458617488, "lon": -163.90445084654905, "alt_km": 1398.9394775233732, "timestamp": "2025-12-06T07:31:40.524591+00:00", "meta": {"OBJECT_NAME": "FENGYUN 1C DEB", "OBJECT_ID": "1999-025DPJ", "EPOCH": "2025-11-30T10:05:49.025184", "MEAN_MOTION": 13.34730307, "ECCENTRICITY": 0.03739167, "INCLINATION": 100.0942, "RA_OF_ASC_NODE": 19.5924, "ARG_OF_PERICENTER": 37.6604, "MEAN_ANOMALY": 325.0083, "EPHEMERIS_TYPE": 0, "CLASSIFICATION_TYPE": "U", "NORAD_CAT_ID": 35202, "ELEMENT_SET_NO": 999, "REV_AT_EPOCH": 56812, "BSTAR": 0.00081043758, "MEAN_MOTION_DOT": 5.61e-06, "MEAN_MOTION_DDOT": 0}, "tle": {"line1": "1 35202U 99025DPJ 25334.42070631  .00000561  00000+0  81044-3 0  9998", "line2": "2 35202 100.0942  19.5924 0373916  37.6604 325.0083 13.34730307568129"}}, "geometry": {"type": "Point", "coordinates": [-163.90445084654905, -42.28463458617488]}}, {"type": "Feature", "properties": {"norad_id": 35203, "name": "FENGYUN 1C DEB", "group": "fengyun-1c-debris", "lat": 41.90176007775778, "lon": 137.30644417159095, "alt_km": 840.3610854057506, "timestamp": "2025-12-06T07:31:40.524601+00:00", "meta": {"OBJECT_NAME": "FENGYUN 1C DEB", "OBJECT_ID": "1999-025DPK", "EPOCH": "2025-12-03T15:27:54.802656", "MEAN_MOTION": 13.26388457, "ECCENTRICITY": 0.05116747, "INCLINATION": 102.0734, "RA_OF_ASC_NODE": 303.1231, "ARG_OF_PERICENTER": 179.2768, "MEAN_ANOMALY": 180.9196, "EPHEMERIS_TYPE": 0, "CLASSIFICATION_TYPE": "U", "NORAD_CAT_ID": 35203, "ELEMENT_SET_NO": 999, "REV_AT_EPOCH": 59530, "BSTAR": 0.0023783479, "MEAN_MOTION_DOT": 2.085e-05, "MEAN_MOTION_DDOT": 0}, "tle": {"line1": "1 35203U 99025DPK 25337.64438429  .00002085  00000+0  23783-2 0  9997", "line2": "2 35203 102.0734 303.1231 0511674 179.2768 180.9196 13.26388457595302"}}, "geometry": {"type": "Point", "coordinates": [137.30644417159095, 41.90176007775778]}}, {"type": "Feature", "properties": {"norad_id": 35204, "name": "FENGYUN 1C DEB", "group": "fengyun-1c-debris", "lat": 75.73003228487974, "lon": 129.8475948191047, "alt_km": 726.1109064363454, "timestamp": "2025-12-06T07:31:40.524612+00:00", "meta": {"OBJECT_NAME": "FENGYUN 1C DEB", "OBJECT_ID": "1999-025DPL", "EPOCH": "2025-12-03T00:17:34.201824", "MEAN_MOTION": 14.4851708, "ECCENTRICITY": 0.00393907, "INCLINATION": 99.0057, "RA_OF_ASC_NODE": 164.9047, "ARG_OF_PERICENTER": 352.2699, "MEAN_ANOMALY": 159.62, "EPHEMERIS_TYPE": 0, "CLASSIFICATION_TYPE": "U", "NORAD_CAT_ID": 35204, "ELEMENT_SET_NO": 999, "REV_AT_EPOCH": 90789, "BSTAR": 0.0029447199, "MEAN_MOTION_DOT": 0.00011129, "MEAN_MOTION_DDOT": 0}, "tle": {"line1": "1 35204U 99025DPL 25337.01220141  .00011129  00000+0  29447-2 0  9991", "line2": "2 35204  99.0057 164.9047 0039390 352.2699 159.6200 14.48517080907891"}}, "geometry": {"type": "Point", "coordinates": [129.8475948191047, 75.73003228487974]}}, {"type": "Feature", "properties": {"norad_id": 35207, "name": "FENGYUN 1C DEB", "group": "fengyun-1c-debris", "lat": -17.273109484106744, "lon": -104.34780003926562, "alt_km": 705.1117137975643, "timestamp": "2025-12-06T07:31:40.524642+00:00", "meta": {"OBJECT_NAME": "FENGYUN 1C DEB", "OBJECT_ID": "1999-025DPP", "EPOCH": "2025-11-29T17:50:26.900160", "MEAN_MOTION": 14.55080945, "ECCENTRICITY": 0.0054743, "INCLINATION": 98.6905, "RA_OF_ASC_NODE": 71.5483, "ARG_OF_PERICENTER": 294.9923, "MEAN_ANOMALY": 64.5593, "EPHEMERIS_TYPE": 0, "CLASSIFICATION_TYPE": "U", "NORAD_CAT_ID": 35207, "ELEMENT_SET_NO": 999, "REV_AT_EPOCH": 64715, "BSTAR": 0.0019605249, "MEAN_MOTION_DOT": 8.586e-05, "MEAN_MOTION_DDOT": 0}, "tle": {"line1": "1 35207U 99025DPP 25333.74336690  .00008586  00000+0  19605-2 0  9995", "line2": "2 35207  98.6905  71.5483 0054743 294.9923  64.5593 14.55080945647151"}}, "geometry": {"type": "Point", "coordinates": [-104.34780003926562, -17.273109484106744]}}, {"type": "Feature", "properties": {"norad_id": 35208, "name": "FENGYUN 1C DEB", "group": "fengyun-1c-debris", "lat": 32.25811126263277, "lon": -5.9910359539684475, "alt_km": 949.9592048954664, "timestamp": "2025-12-06T07:31:40.524653+00:00", "meta": {"OBJECT_NAME": "FENGYUN 1C DEB", "OBJECT_ID": "1999-025DPQ", "EPOCH": "2025-11-27T19:11:53.318688", "MEAN_MOTION": 13.99599013, "ECCENTRICITY": 0.01006373, "INCLINATION": 98.9056, "RA_OF_ASC_NODE": 351.4058, "ARG_OF_PERICENTER": 197.6504, "MEAN_ANOMALY": 162.1154, "EPHEMERIS_TYPE": 0, "CLASSIFICATION_TYPE": "U", "NORAD_CAT_ID": 35208, "ELEMENT_SET_NO": 999, "REV_AT_EPOCH": 90354, "BSTAR": 0.00091687477, "MEAN_MOTION_DOT": 1.356e-05, "MEAN_MOTION_DDOT": 0}, "tle": {"line1": "1 35208U 99025DPQ 25331.79992267  .00001356  00000+0  91687-3 0  9996", "line2": "2 35208  98.9056 351.4058 0100637 197.6504 162.1154 13.99599013903542"}}, "geometry": {"type": "Point", "coordinates": [-5.9910359539684475, 32.25811126263277]}}, {"type": "Feature", "properties": {"norad_id": 35210, "name": "FENGYUN 1C DEB", "group": "fengyun-1c-debris", "lat": -80.8210998542178, "lon": 81.20474811731096, "alt_km": 752.6802271255146, "timestamp": "2025-12-06T07:31:40.524663+00:00", "meta": {"OBJECT_NAME": "FENGYUN 1C DEB", "OBJECT_ID": "1999-025DPS", "EPOCH": "2025-12-03T11:59:47.719104", "MEAN_MOTION": 14.3342429, "ECCENTRICITY": 0.00494182, "INCLINATION": 99.0975, "RA_OF_ASC_NODE": 340.8263, "ARG_OF_PERICENTER": 266.3294, "MEAN_ANOMALY": 250.1349, "EPHEMERIS_TYPE": 0, "CLASSIFICATION_TYPE": "U", "NORAD_CAT_ID": 35210, "ELEMENT_SET_NO": 999, "REV_AT_EPOCH": 89990, "BSTAR": 0.0034879848, "MEAN_MOTION_DOT": 9.724e-05, "MEAN_MOTION_DDOT": 0}, "tle": {"line1": "1 35210U 99025DPS 25337.49985786  .00009724  00000+0  34880-2 0  9998", "line2": "2 35210  99.0975 340.8263 0049418 266.3294 250.1349 14.33424290899907"}}, "geometry": {"type": "Point", "coordinates": [81.20474811731096, -80.8210998542178]}}]}